UNKNOWN                 
1 89251U          25310.68132005  .00018046  00000+0  10264-1 0  9993
2 89251  62.4778  50.5279 2842141  97.3697 295.4713  9.23801442369857
UNKNOWN                 
1 89261U          25306.74647082  .00001159  00000+0  35836-3 0  9993
2 89261  98.1530 302.8832 0011685 282.9117  77.0769 14.42991261528045
UNKNOWN                 
1 89304U          25311.51337207  .00009260  00000+0  12112-1 0  9998
2 89304  84.3923 113.2893 2845481  31.1068  21.3673  9.02368530435227
UNKNOWN                 
1 89314U          25286.18589808  .00006746  00000+0  96919-2 0  9993
2 89314  18.9506 212.2276 6978404 201.8059 100.8752  2.60141272 87273
UNKNOWN                 
1 89349U          25305.92848939  .00000550  00000+0  18992-2 0  9990
2 89349  90.2485   6.4380 0029027  17.7705 342.4423 12.96223770473466
UNKNOWN                 
1 89379U          25311.31859462  .00005267  00000+0  68163-2 0  9991
2 89379 100.4834 323.9643 0045292 213.7820 146.0430 13.62294110575951
UNKNOWN                 
1 89395U          25300.37503799  .00000450  00000+0  55657-2 0  9995
2 89395 102.3563 271.2209 0221817 204.4949 318.8497 12.01494403519173
UNKNOWN                 
1 89403U          25311.60819190 -.00000073  00000+0 -27178-3 0  9999
2 89403  90.2482   5.0094 0024804 309.5281 208.1080 12.98706053473267
UNKNOWN                 
1 89484U          25311.06579747  .00062754  00000+0  54742-1 0  9996
2 89484  84.1325 164.8717 2857200  73.4831 315.8076  9.10746515352189
UNKNOWN                 
1 89493U          25309.63024968  .00003398  00000+0  16889-2 0  9996
2 89493  99.0293  17.9979 0083685 145.4916 215.1730 14.15942430458693
UNKNOWN                 
1 89494U          25306.64411179  .00002941  00000+0  14664-2 0  9991
2 89494  99.0298  14.8619 0084402 153.8992 206.6473 14.15853584458129
