CCSDS_OMM_VERS = 2.0
CREATION_DATE  = 
ORIGINATOR     = 

OBJECT_NAME    = UNKNOWN
OBJECT_ID      = 
CENTER_NAME    = EARTH
REF_FRAME      = TEME
TIME_SYSTEM    = UTC
MEAN_ELEMENT_THEORY = SGP/SGP4

EPOCH          = 2025-11-06T16:21:06.052320
MEAN_MOTION    = 9.23801442
ECCENTRICITY   = .2842141
INCLINATION    = 62.4778
RA_OF_ASC_NODE = 50.5279
ARG_OF_PERICENTER = 97.3697
MEAN_ANOMALY   = 295.4713

EPHEMERIS_TYPE = 0
CLASSIFICATION_TYPE = U
NORAD_CAT_ID   = 89251
ELEMENT_SET_NO = 999
REV_AT_EPOCH   = 36985
BSTAR          = .10264E-1
MEAN_MOTION_DOT = .18046E-3
MEAN_MOTION_DDOT = 0

CCSDS_OMM_VERS = 2.0
CREATION_DATE  = 
ORIGINATOR     = 

OBJECT_NAME    = UNKNOWN
OBJECT_ID      = 
CENTER_NAME    = EARTH
REF_FRAME      = TEME
TIME_SYSTEM    = UTC
MEAN_ELEMENT_THEORY = SGP/SGP4

EPOCH          = 2025-11-02T17:54:55.078848
MEAN_MOTION    = 14.42991261
ECCENTRICITY   = .0011685
INCLINATION    = 98.1530
RA_OF_ASC_NODE = 302.8832
ARG_OF_PERICENTER = 282.9117
MEAN_ANOMALY   = 77.0769

EPHEMERIS_TYPE = 0
CLASSIFICATION_TYPE = U
NORAD_CAT_ID   = 89261
ELEMENT_SET_NO = 999
REV_AT_EPOCH   = 52804
BSTAR          = .35836E-3
MEAN_MOTION_DOT = .1159E-4
MEAN_MOTION_DDOT = 0

CCSDS_OMM_VERS = 2.0
CREATION_DATE  = 
ORIGINATOR     = 

OBJECT_NAME    = UNKNOWN
OBJECT_ID      = 
CENTER_NAME    = EARTH
REF_FRAME      = TEME
TIME_SYSTEM    = UTC
MEAN_ELEMENT_THEORY = SGP/SGP4

EPOCH          = 2025-11-07T12:19:15.346848
MEAN_MOTION    = 9.02368530
ECCENTRICITY   = .2845481
INCLINATION    = 84.3923
RA_OF_ASC_NODE = 113.2893
ARG_OF_PERICENTER = 31.1068
MEAN_ANOMALY   = 21.3673

EPHEMERIS_TYPE = 0
CLASSIFICATION_TYPE = U
NORAD_CAT_ID   = 89304
ELEMENT_SET_NO = 999
REV_AT_EPOCH   = 43522
BSTAR          = .12112E-1
MEAN_MOTION_DOT = .926E-4
MEAN_MOTION_DDOT = 0

CCSDS_OMM_VERS = 2.0
CREATION_DATE  = 
ORIGINATOR     = 

OBJECT_NAME    = UNKNOWN
OBJECT_ID      = 
CENTER_NAME    = EARTH
REF_FRAME      = TEME
TIME_SYSTEM    = UTC
MEAN_ELEMENT_THEORY = SGP/SGP4

EPOCH          = 2025-10-13T04:27:41.594112
MEAN_MOTION    = 2.60141272
ECCENTRICITY   = .6978404
INCLINATION    = 18.9506
RA_OF_ASC_NODE = 212.2276
ARG_OF_PERICENTER = 201.8059
MEAN_ANOMALY   = 100.8752

EPHEMERIS_TYPE = 0
CLASSIFICATION_TYPE = U
NORAD_CAT_ID   = 89314
ELEMENT_SET_NO = 999
REV_AT_EPOCH   = 8727
BSTAR          = .96919E-2
MEAN_MOTION_DOT = .6746E-4
MEAN_MOTION_DDOT = 0

CCSDS_OMM_VERS = 2.0
CREATION_DATE  = 
ORIGINATOR     = 

OBJECT_NAME    = UNKNOWN
OBJECT_ID      = 
CENTER_NAME    = EARTH
REF_FRAME      = TEME
TIME_SYSTEM    = UTC
MEAN_ELEMENT_THEORY = SGP/SGP4

EPOCH          = 2025-11-01T22:17:01.483296
MEAN_MOTION    = 12.96223770
ECCENTRICITY   = .0029027
INCLINATION    = 90.2485
RA_OF_ASC_NODE = 6.4380
ARG_OF_PERICENTER = 17.7705
MEAN_ANOMALY   = 342.4423

EPHEMERIS_TYPE = 0
CLASSIFICATION_TYPE = U
NORAD_CAT_ID   = 89349
ELEMENT_SET_NO = 999
REV_AT_EPOCH   = 47346
BSTAR          = .18992E-2
MEAN_MOTION_DOT = .55E-5
MEAN_MOTION_DDOT = 0

CCSDS_OMM_VERS = 2.0
CREATION_DATE  = 
ORIGINATOR     = 

OBJECT_NAME    = UNKNOWN
OBJECT_ID      = 
CENTER_NAME    = EARTH
REF_FRAME      = TEME
TIME_SYSTEM    = UTC
MEAN_ELEMENT_THEORY = SGP/SGP4

EPOCH          = 2025-11-07T07:38:46.575168
MEAN_MOTION    = 13.62294110
ECCENTRICITY   = .0045292
INCLINATION    = 100.4834
RA_OF_ASC_NODE = 323.9643
ARG_OF_PERICENTER = 213.7820
MEAN_ANOMALY   = 146.0430

EPHEMERIS_TYPE = 0
CLASSIFICATION_TYPE = U
NORAD_CAT_ID   = 89379
ELEMENT_SET_NO = 999
REV_AT_EPOCH   = 57595
BSTAR          = .68163E-2
MEAN_MOTION_DOT = .5267E-4
MEAN_MOTION_DDOT = 0

CCSDS_OMM_VERS = 2.0
CREATION_DATE  = 
ORIGINATOR     = 

OBJECT_NAME    = UNKNOWN
OBJECT_ID      = 
CENTER_NAME    = EARTH
REF_FRAME      = TEME
TIME_SYSTEM    = UTC
MEAN_ELEMENT_THEORY = SGP/SGP4

EPOCH          = 2025-10-27T09:00:03.282336
MEAN_MOTION    = 12.01494403
ECCENTRICITY   = .0221817
INCLINATION    = 102.3563
RA_OF_ASC_NODE = 271.2209
ARG_OF_PERICENTER = 204.4949
MEAN_ANOMALY   = 318.8497

EPHEMERIS_TYPE = 0
CLASSIFICATION_TYPE = U
NORAD_CAT_ID   = 89395
ELEMENT_SET_NO = 999
REV_AT_EPOCH   = 51917
BSTAR          = .55657E-2
MEAN_MOTION_DOT = .45E-5
MEAN_MOTION_DDOT = 0

CCSDS_OMM_VERS = 2.0
CREATION_DATE  = 
ORIGINATOR     = 

OBJECT_NAME    = UNKNOWN
OBJECT_ID      = 
CENTER_NAME    = EARTH
REF_FRAME      = TEME
TIME_SYSTEM    = UTC
MEAN_ELEMENT_THEORY = SGP/SGP4

EPOCH          = 2025-11-07T14:35:47.780160
MEAN_MOTION    = 12.98706053
ECCENTRICITY   = .0024804
INCLINATION    = 90.2482
RA_OF_ASC_NODE = 5.0094
ARG_OF_PERICENTER = 309.5281
MEAN_ANOMALY   = 208.1080

EPHEMERIS_TYPE = 0
CLASSIFICATION_TYPE = U
NORAD_CAT_ID   = 89403
ELEMENT_SET_NO = 999
REV_AT_EPOCH   = 47326
BSTAR          = -.27178E-3
MEAN_MOTION_DOT = -.73E-6
MEAN_MOTION_DDOT = 0

CCSDS_OMM_VERS = 2.0
CREATION_DATE  = 
ORIGINATOR     = 

OBJECT_NAME    = UNKNOWN
OBJECT_ID      = 
CENTER_NAME    = EARTH
REF_FRAME      = TEME
TIME_SYSTEM    = UTC
MEAN_ELEMENT_THEORY = SGP/SGP4

EPOCH          = 2025-11-07T01:34:44.901408
MEAN_MOTION    = 9.10746515
ECCENTRICITY   = .28572
INCLINATION    = 84.1325
RA_OF_ASC_NODE = 164.8717
ARG_OF_PERICENTER = 73.4831
MEAN_ANOMALY   = 315.8076

EPHEMERIS_TYPE = 0
CLASSIFICATION_TYPE = U
NORAD_CAT_ID   = 89484
ELEMENT_SET_NO = 999
REV_AT_EPOCH   = 35218
BSTAR          = .54742E-1
MEAN_MOTION_DOT = .62754E-3
MEAN_MOTION_DDOT = 0

CCSDS_OMM_VERS = 2.0
CREATION_DATE  = 
ORIGINATOR     = 

OBJECT_NAME    = UNKNOWN
OBJECT_ID      = 
CENTER_NAME    = EARTH
REF_FRAME      = TEME
TIME_SYSTEM    = UTC
MEAN_ELEMENT_THEORY = SGP/SGP4

EPOCH          = 2025-11-05T15:07:33.572352
MEAN_MOTION    = 14.15942430
ECCENTRICITY   = .0083685
INCLINATION    = 99.0293
RA_OF_ASC_NODE = 17.9979
ARG_OF_PERICENTER = 145.4916
MEAN_ANOMALY   = 215.1730

EPHEMERIS_TYPE = 0
CLASSIFICATION_TYPE = U
NORAD_CAT_ID   = 89493
ELEMENT_SET_NO = 999
REV_AT_EPOCH   = 45869
BSTAR          = .16889E-2
MEAN_MOTION_DOT = .3398E-4
MEAN_MOTION_DDOT = 0

CCSDS_OMM_VERS = 2.0
CREATION_DATE  = 
ORIGINATOR     = 

OBJECT_NAME    = UNKNOWN
OBJECT_ID      = 
CENTER_NAME    = EARTH
REF_FRAME      = TEME
TIME_SYSTEM    = UTC
MEAN_ELEMENT_THEORY = SGP/SGP4

EPOCH          = 2025-11-02T15:27:31.258656
MEAN_MOTION    = 14.15853584
ECCENTRICITY   = .0084402
INCLINATION    = 99.0298
RA_OF_ASC_NODE = 14.8619
ARG_OF_PERICENTER = 153.8992
MEAN_ANOMALY   = 206.6473

EPHEMERIS_TYPE = 0
CLASSIFICATION_TYPE = U
NORAD_CAT_ID   = 89494
ELEMENT_SET_NO = 999
REV_AT_EPOCH   = 45812
BSTAR          = .14664E-2
MEAN_MOTION_DOT = .2941E-4
MEAN_MOTION_DDOT = 0

